FLOCK 4G-1              
1 62666U 25009BK  26068.75951132  .00013534  00000+0  50654-3 0  9995
2 62666  97.4059 151.3158 0003180 323.1401  36.9619 15.27421081 63725
STARLINK-35315          
1 66543U 25265AD  26067.98905385  .00028713  00000+0  10484-2 0  9991
2 66543  43.0051 282.1148 0002391 271.0191  89.0386 15.27594453 17008
